0 COSMOS 2076
1 20596U 90040A   13283.01472304 -.00000512  00000-0  00000+0 0  4660
2 20596 067.9693 080.4317 5816584 200.8359 121.3924 02.00402014171825
0 COSMOS 2076
1 20596U 90040A   13285.82851191 -.00000482  00000-0  00000+0 0  4673
2 20596 067.9697 080.2668 5816574 200.7874 351.3527 02.00399013171879
0 COSMOS 2076
1 20596U 90040A   13288.82253463 -.00000538  00000-0  00000+0 0  4687
2 20596 067.9696 080.0911 5816537 200.7343 351.3070 02.00395893171939
0 COSMOS 2076
1 20596U 90040A   13292.81375689 -.00000612  00000-0  00000+0 0  4690
2 20596 067.9707 079.8573 5816591 200.6623 350.6184 02.00391481172019
0 COSMOS 2076
1 20596U 90040A   13294.99921105 -.00000578  00000-0  00000+0 0  4704
2 20596 067.9716 079.7294 5816612 200.6238 127.2045 02.00388941172060
